{
    "CCSDS_OMM_VERS": "3.0",
    "COMMENT": "GENERATED VIA SPACE-TRACK.ORG API",
    "CREATION_DATE": "2025-05-22T22:36:18",
    "ORIGINATOR": "18 SPCS",
    "OBJECT_NAME": "COSMOS 2465 (GLONASS)",
    "OBJECT_ID": "2010-041B",
    "CENTER_NAME": "EARTH",
    "REF_FRAME": "TEME",
    "TIME_SYSTEM": "UTC",
    "MEAN_ELEMENT_THEORY": "SGP4",
    "EPOCH": "2025-05-22T16:33:13.792608",
    "MEAN_MOTION": "2.13098249",
    "ECCENTRICITY": "0.00407270",
    "INCLINATION": "63.9069",
    "RA_OF_ASC_NODE": "203.6138",
    "ARG_OF_PERICENTER": "180.0919",
    "MEAN_ANOMALY": "219.1291",
    "EPHEMERIS_TYPE": "0",
    "CLASSIFICATION_TYPE": "U",
    "NORAD_CAT_ID": "37138",
    "ELEMENT_SET_NO": "999",
    "REV_AT_EPOCH": "11457",
    "BSTAR": "0.00000000000000",
    "MEAN_MOTION_DOT": "0.00000061",
    "MEAN_MOTION_DDOT": "0.0000000000000",
    "SEMIMAJOR_AXIS": "25508.324",
    "PERIOD": "675.745",
    "APOAPSIS": "19234.077",
    "PERIAPSIS": "19026.301",
    "OBJECT_TYPE": "PAYLOAD",
    "RCS_SIZE": "LARGE",
    "COUNTRY_CODE": "CIS",
    "LAUNCH_DATE": "2010-09-02",
    "SITE": "TTMTR",
    "DECAY_DATE": null,
    "FILE": "4736323",
    "GP_ID": "288161324",
    "TLE_LINE0": "0 COSMOS 2465 (GLONASS)",
    "TLE_LINE1": "1 37138U 10041B   25142.68974297  .00000061  00000-0  00000+0 0  9990",
    "TLE_LINE2": "2 37138  63.9069 203.6138 0040727 180.0919 219.1291  2.13098249114579"
}